{
  "type": "FeatureCollection",
  "features": [
    {
      "type": "Feature",
      "properties": {
        "norad_id": 35890,
        "name": "COSMOS 2251 DEB",
        "group": "cosmos-2251-debris",
        "lat": 50.65800958944507,
        "lon": -113.85147675494284,
        "alt_km": 679.802432675463,
        "timestamp": "2025-12-21T16:47:55.135753+00:00",
        "meta_object_name": "COSMOS 2251 DEB",
        "meta_object_id": "1993-036AUD",
        "meta_epoch": "2025-12-16T22:53:46.078656",
        "meta_mean_motion": 14.57543512,
        "meta_eccentricity": 0.00539437,
        "meta_inclination": 73.9365,
        "meta_ra_of_asc_node": 234.6414,
        "meta_arg_of_pericenter": 358.5125,
        "meta_mean_anomaly": 1.5869,
        "meta_ephemeris_type": 0,
        "meta_classification_type": "U",
        "meta_norad_cat_id": 35890,
        "meta_element_set_no": 999,
        "meta_rev_at_epoch": 65212,
        "meta_bstar": 0.0012168345,
        "meta_mean_motion_dot": 5.621e-05,
        "meta_mean_motion_ddot": 0,
        "tle_line1": "1 35890U 93036AUD 25350.95400554  .00005621  00000+0  12168-2 0  9996",
        "tle_line2": "2 35890  73.9365 234.6414 0053943 358.5125   1.5869 14.57543512652129"
      },
      "geometry": {
        "type": "Point",
        "coordinates": [
          -113.85147675494284,
          50.65800958944507
        ]
      }
    },
    {
      "type": "Feature",
      "properties": {
        "norad_id": 35891,
        "name": "COSMOS 2251 DEB",
        "group": "cosmos-2251-debris",
        "lat": -59.32853827674872,
        "lon": -76.40063796547564,
        "alt_km": 448.35401349310996,
        "timestamp": "2025-12-21T16:47:55.135767+00:00",
        "meta_object_name": "COSMOS 2251 DEB",
        "meta_object_id": "1993-036AUE",
        "meta_epoch": "2025-12-19T23:02:38.567040",
        "meta_mean_motion": 15.33900235,
        "meta_eccentricity": 0.0042412,
        "meta_inclination": 73.9897,
        "meta_ra_of_asc_node": 78.3766,
        "meta_arg_of_pericenter": 207.7893,
        "meta_mean_anomaly": 152.1046,
        "meta_ephemeris_type": 0,
        "meta_classification_type": "U",
        "meta_norad_cat_id": 35891,
        "meta_element_set_no": 999,
        "meta_rev_at_epoch": 67331,
        "meta_bstar": 0.0008769,
        "meta_mean_motion_dot": 0.00029674,
        "meta_mean_motion_ddot": 0,
        "tle_line1": "1 35891U 93036AUE 25353.96016860  .00029674  00000+0  87690-3 0  9991",
        "tle_line2": "2 35891  73.9897  78.3766 0042412 207.7893 152.1046 15.33900235673317"
      },
      "geometry": {
        "type": "Point",
        "coordinates": [
          -76.40063796547564,
          -59.32853827674872
        ]
      }
    },
    {
      "type": "Feature",
      "properties": {
        "norad_id": 35895,
        "name": "COSMOS 2251 DEB",
        "group": "cosmos-2251-debris",
        "lat": -71.24613205253159,
        "lon": -150.49740152653894,
        "alt_km": 1037.25123653007,
        "timestamp": "2025-12-21T16:47:55.135778+00:00",
        "meta_object_name": "COSMOS 2251 DEB",
        "meta_object_id": "1993-036AUJ",
        "meta_epoch": "2025-12-20T05:18:32.719392",
        "meta_mean_motion": 14.01557935,
        "meta_eccentricity": 0.0199682,
        "meta_inclination": 74.0503,
        "meta_ra_of_asc_node": 334.6863,
        "meta_arg_of_pericenter": 71.097,
        "meta_mean_anomaly": 291.1695,
        "meta_ephemeris_type": 0,
        "meta_classification_type": "U",
        "meta_norad_cat_id": 35895,
        "meta_element_set_no": 999,
        "meta_rev_at_epoch": 59117,
        "meta_bstar": 0.0011304,
        "meta_mean_motion_dot": 2.013e-05,
        "meta_mean_motion_ddot": 0,
        "tle_line1": "1 35895U 93036AUJ 25354.22121203  .00002013  00000+0  11304-2 0  9999",
        "tle_line2": "2 35895  74.0503 334.6863 0199682  71.0970 291.1695 14.01557935591179"
      },
      "geometry": {
        "type": "Point",
        "coordinates": [
          -150.49740152653894,
          -71.24613205253159
        ]
      }
    },
    {
      "type": "Feature",
      "properties": {
        "norad_id": 35898,
        "name": "COSMOS 2251 DEB",
        "group": "cosmos-2251-debris",
        "lat": -64.50682274484383,
        "lon": 136.36332355796796,
        "alt_km": 644.075801306346,
        "timestamp": "2025-12-21T16:47:55.135788+00:00",
        "meta_object_name": "COSMOS 2251 DEB",
        "meta_object_id": "1993-036AUM",
        "meta_epoch": "2025-12-17T02:32:30.687072",
        "meta_mean_motion": 14.94779467,
        "meta_eccentricity": 0.00792454,
        "meta_inclination": 73.9918,
        "meta_ra_of_asc_node": 288.6268,
        "meta_arg_of_pericenter": 70.8936,
        "meta_mean_anomaly": 307.548,
        "meta_ephemeris_type": 0,
        "meta_classification_type": "U",
        "meta_norad_cat_id": 35898,
        "meta_element_set_no": 999,
        "meta_rev_at_epoch": 66875,
        "meta_bstar": 0.00065982938,
        "meta_mean_motion_dot": 7.606e-05,
        "meta_mean_motion_ddot": 0,
        "tle_line1": "1 35898U 93036AUM 25351.10591073  .00007606  00000+0  65983-3 0  9998",
        "tle_line2": "2 35898  73.9918 288.6268 0079245  70.8936 307.5480 14.94779467668759"
      },
      "geometry": {
        "type": "Point",
        "coordinates": [
          136.36332355796796,
          -64.50682274484383
        ]
      }
    },
    {
      "type": "Feature",
      "properties": {
        "norad_id": 35901,
        "name": "COSMOS 2251 DEB",
        "group": "cosmos-2251-debris",
        "lat": -54.7245788196056,
        "lon": -19.494838925782442,
        "alt_km": 545.2340904736893,
        "timestamp": "2025-12-21T16:47:55.135821+00:00",
        "meta_object_name": "COSMOS 2251 DEB",
        "meta_object_id": "1993-036AUQ",
        "meta_epoch": "2025-12-21T07:33:55.014048",
        "meta_mean_motion": 15.07789315,
        "meta_eccentricity": 0.0007598,
        "meta_inclination": 74.0113,
        "meta_ra_of_asc_node": 5.2093,
        "meta_arg_of_pericenter": 337.8636,
        "meta_mean_anomaly": 36.6976,
        "meta_ephemeris_type": 0,
        "meta_classification_type": "U",
        "meta_norad_cat_id": 35901,
        "meta_element_set_no": 999,
        "meta_rev_at_epoch": 86256,
        "meta_bstar": 0.0027352,
        "meta_mean_motion_dot": 0.00042089,
        "meta_mean_motion_ddot": 0,
        "tle_line1": "1 35901U 93036AUQ 25355.31522007  .00042089  00000+0  27352-2 0  9992",
        "tle_line2": "2 35901  74.0113   5.2093 0007598 337.8636  36.6976 15.07789315862560"
      },
      "geometry": {
        "type": "Point",
        "coordinates": [
          -19.494838925782442,
          -54.7245788196056
        ]
      }
    },
    {
      "type": "Feature",
      "properties": {
        "norad_id": 35902,
        "name": "COSMOS 2251 DEB",
        "group": "cosmos-2251-debris",
        "lat": 25.674788038025945,
        "lon": 30.381681542365403,
        "alt_km": 874.1600639850476,
        "timestamp": "2025-12-21T16:47:55.135835+00:00",
        "meta_object_name": "COSMOS 2251 DEB",
        "meta_object_id": "1993-036AUR",
        "meta_epoch": "2025-12-19T15:17:09.843072",
        "meta_mean_motion": 14.26937143,
        "meta_eccentricity": 0.0102282,
        "meta_inclination": 73.9823,
        "meta_ra_of_asc_node": 222.0626,
        "meta_arg_of_pericenter": 335.5486,
        "meta_mean_anomaly": 24.0827,
        "meta_ephemeris_type": 0,
        "meta_classification_type": "U",
        "meta_norad_cat_id": 35902,
        "meta_element_set_no": 999,
        "meta_rev_at_epoch": 61228,
        "meta_bstar": 0.00057286,
        "meta_mean_motion_dot": 1.445e-05,
        "meta_mean_motion_ddot": 0,
        "tle_line1": "1 35902U 93036AUR 25353.63691948  .00001445  00000+0  57286-3 0  9998",
        "tle_line2": "2 35902  73.9823 222.0626 0102282 335.5486  24.0827 14.26937143612284"
      },
      "geometry": {
        "type": "Point",
        "coordinates": [
          30.381681542365403,
          25.674788038025945
        ]
      }
    },
    {
      "type": "Feature",
      "properties": {
        "norad_id": 35905,
        "name": "COSMOS 2251 DEB",
        "group": "cosmos-2251-debris",
        "lat": -73.9822360673818,
        "lon": 106.6574842884961,
        "alt_km": 513.518659160648,
        "timestamp": "2025-12-21T16:47:55.135846+00:00",
        "meta_object_name": "COSMOS 2251 DEB",
        "meta_object_id": "1993-036AUU",
        "meta_epoch": "2025-12-19T20:20:40.701984",
        "meta_mean_motion": 14.99109626,
        "meta_eccentricity": 0.00907234,
        "meta_inclination": 74.0303,
        "meta_ra_of_asc_node": 196.3814,
        "meta_arg_of_pericenter": 274.7905,
        "meta_mean_anomaly": 84.2926,
        "meta_ephemeris_type": 0,
        "meta_classification_type": "U",
        "meta_norad_cat_id": 35905,
        "meta_element_set_no": 999,
        "meta_rev_at_epoch": 88689,
        "meta_bstar": 0.00038534717,
        "meta_mean_motion_dot": 5.062e-05,
        "meta_mean_motion_ddot": 0,
        "tle_line1": "1 35905U 93036AUU 25353.84769331  .00005062  00000+0  38535-3 0  9991",
        "tle_line2": "2 35905  74.0303 196.3814 0090723 274.7905  84.2926 14.99109626886895"
      },
      "geometry": {
        "type": "Point",
        "coordinates": [
          106.6574842884961,
          -73.9822360673818
        ]
      }
    }
  ]
}